$$SOE
2460154.500000000, A.D. 2023-Jul-29 00:00:00.0000, 2.419380415749828E+09, 4.954174327938084E+09, -3.021572536639285E+07,
2460161.500000000, A.D. 2023-Aug-05 00:00:00.0000, 2.416316206718467E+09, 4.954905370052790E+09, -2.995743919989514E+07,
2460168.500000000, A.D. 2023-Aug-12 00:00:00.0000, 2.413251210166310E+09, 4.955634946414211E+09, -2.969914189104271E+07,
2460175.500000000, A.D. 2023-Aug-19 00:00:00.0000, 2.410185424723866E+09, 4.956363053814586E+09, -2.944083339214420E+07,
2460182.500000000, A.D. 2023-Aug-26 00:00:00.0000, 2.407118849327987E+09, 4.957089688647592E+09, -2.918251367968178E+07,
2460189.500000000, A.D. 2023-Sep-02 00:00:00.0000, 2.404051483199615E+09, 4.957814846927038E+09, -2.892418275289392E+07,
2460196.500000000, A.D. 2023-Sep-09 00:00:00.0000, 2.400983325835148E+09, 4.958538524193011E+09, -2.866584064371920E+07,
2460203.500000000, A.D. 2023-Sep-16 00:00:00.0000, 2.397914377179870E+09, 4.959260715247490E+09, -2.840748745822525E+07,
2460210.500000000, A.D. 2023-Sep-23 00:00:00.0000, 2.394844638399830E+09, 4.959981414006200E+09, -2.814912346422696E+07,
2460217.500000000, A.D. 2023-Sep-30 00:00:00.0000, 2.391774112912621E+09, 4.960700614657436E+09, -2.789074909652781E+07,
2460224.500000000, A.D. 2023-Oct-07 00:00:00.0000, 2.388702805323312E+09, 4.961418313585025E+09, -2.763236470813274E+07,
2460231.500000000, A.D. 2023-Oct-14 00:00:00.0000, 2.385630719305433E+09, 4.962134508742249E+09, -2.737397043340468E+07,
2460238.500000000, A.D. 2023-Oct-21 00:00:00.0000, 2.382557857655621E+09, 4.962849198079483E+09, -2.711556632813382E+07,
2460245.500000000, A.D. 2023-Oct-28 00:00:00.0000, 2.379484223097560E+09, 4.963562379285619E+09, -2.685715247094822E+07,
2460252.500000000, A.D. 2023-Nov-04 00:00:00.0000, 2.376409818585196E+09, 4.964274050072927E+09, -2.659872897410035E+07,
2460259.500000000, A.D. 2023-Nov-11 00:00:00.0000, 2.373334647282781E+09, 4.964984208405475E+09, -2.634029596869683E+07,
2460266.500000000, A.D. 2023-Nov-18 00:00:00.0000, 2.370258712441257E+09, 4.965692852606754E+09, -2.608185358948255E+07,
2460273.500000000, A.D. 2023-Nov-25 00:00:00.0000, 2.367182017243793E+09, 4.966399981369131E+09, -2.582340196380854E+07,
2460280.500000000, A.D. 2023-Dec-02 00:00:00.0000, 2.364104564648671E+09, 4.967105593653891E+09, -2.556494120810223E+07,
2460287.500000000, A.D. 2023-Dec-09 00:00:00.0000, 2.361026357307343E+09, 4.967809688422971E+09, -2.530647144367123E+07,
2460294.500000000, A.D. 2023-Dec-16 00:00:00.0000, 2.357947397845205E+09, 4.968512264214956E+09, -2.504799285715938E+07,
2460301.500000000, A.D. 2023-Dec-23 00:00:00.0000, 2.354867689853538E+09, 4.969213319252766E+09, -2.478950578147435E+07,
2460308.500000000, A.D. 2023-Dec-30 00:00:00.0000, 2.351787238252405E+09, 4.969912853132303E+09, -2.453101058862734E+07,
2460315.500000000, A.D. 2024-Jan-06 00:00:00.0000, 2.348706047252042E+09, 4.970610867731345E+09, -2.427250742500257E+07,
2460322.500000000, A.D. 2024-Jan-13 00:00:00.0000, 2.345624119085489E+09, 4.971307365531763E+09, -2.401399622796607E+07,
2460329.500000000, A.D. 2024-Jan-20 00:00:00.0000, 2.342541454736032E+09, 4.972002348439660E+09, -2.375547688419962E+07,
2460336.500000000, A.D. 2024-Jan-27 00:00:00.0000, 2.339458054630691E+09, 4.972695817755618E+09, -2.349694929064536E+07,
2460343.500000000, A.D. 2024-Feb-03 00:00:00.0000, 2.336373918871417E+09, 4.973387774346442E+09, -2.323841335651541E+07,
2460350.500000000, A.D. 2024-Feb-10 00:00:00.0000, 2.333289047281324E+09, 4.974078218727279E+09, -2.297986899581623E+07,
2460357.500000000, A.D. 2024-Feb-17 00:00:00.0000, 2.330203439404689E+09, 4.974767151062039E+09, -2.272131612263989E+07,
2460364.500000000, A.D. 2024-Feb-24 00:00:00.0000, 2.327117094496633E+09, 4.975454571096913E+09, -2.246275465145588E+07,
2460371.500000000, A.D. 2024-Mar-02 00:00:00.0000, 2.324030011531847E+09, 4.976140477994452E+09, -2.220418450785446E+07,
2460378.500000000, A.D. 2024-Mar-09 00:00:00.0000, 2.320942189371160E+09, 4.976824870005371E+09, -2.194560566770148E+07,
2460385.500000000, A.D. 2024-Mar-16 00:00:00.0000, 2.317853627481261E+09, 4.977507744175336E+09, -2.168701824488306E+07,
2460392.500000000, A.D. 2024-Mar-23 00:00:00.0000, 2.314764327103995E+09, 4.978189097195765E+09, -2.142842252755976E+07,
2460399.500000000, A.D. 2024-Mar-30 00:00:00.0000, 2.311674290634091E+09, 4.978868927371870E+09, -2.116981875956225E+07,
2460406.500000000, A.D. 2024-Apr-06 00:00:00.0000, 2.308583519461349E+09, 4.979547234340318E+09, -2.091120696563148E+07,
2460413.500000000, A.D. 2024-Apr-13 00:00:00.0000, 2.305492013828425E+09, 4.980224017372930E+09, -2.065258707786942E+07,
2460420.500000000, A.D. 2024-Apr-20 00:00:00.0000, 2.302399773752055E+09, 4.980899274943087E+09, -2.039395905730867E+07,
2460427.500000000, A.D. 2024-Apr-27 00:00:00.0000, 2.299306799490719E+09, 4.981573004993455E+09, -2.013532291729999E+07,
2460434.500000000, A.D. 2024-May-04 00:00:00.0000, 2.296213091646636E+09, 4.982245205201716E+09, -1.987667871419168E+07,
2460441.500000000, A.D. 2024-May-11 00:00:00.0000, 2.293118651140454E+09, 4.982915873142710E+09, -1.961802653539348E+07,
2460448.500000000, A.D. 2024-May-18 00:00:00.0000, 2.290023479140597E+09, 4.983585006368854E+09, -1.935936649042916E+07,
2460455.500000000, A.D. 2024-May-25 00:00:00.0000, 2.286927576972017E+09, 4.984252602402048E+09, -1.910069870765114E+07,
2460462.500000000, A.D. 2024-Jun-01 00:00:00.0000, 2.283830946064164E+09, 4.984918658579966E+09, -1.884202334657860E+07,
2460469.500000000, A.D. 2024-Jun-08 00:00:00.0000, 2.280733588184569E+09, 4.985583171734066E+09, -1.858334065009284E+07,
2460476.500000000, A.D. 2024-Jun-15 00:00:00.0000, 2.277635506357533E+09, 4.986246138244733E+09, -1.832465102831769E+07,
2460483.500000000, A.D. 2024-Jun-22 00:00:00.0000, 2.274536705462724E+09, 4.986907555648875E+09, -1.806595498568249E+07,
2460490.500000000, A.D. 2024-Jun-29 00:00:00.0000, 2.271437190392035E+09, 4.987567423979391E+09, -1.780725284510517E+07,
2460497.500000000, A.D. 2024-Jul-06 00:00:00.0000, 2.268336964409726E+09, 4.988225744365545E+09, -1.754854471362972E+07,
2460504.500000000, A.D. 2024-Jul-13 00:00:00.0000, 2.265236029665083E+09, 4.988882517718431E+09, -1.728983063735962E+07,
2460511.500000000, A.D. 2024-Jul-20 00:00:00.0000, 2.262134387871950E+09, 4.989537744650277E+09, -1.703111066958594E+07,
2460518.500000000, A.D. 2024-Jul-27 00:00:00.0000, 2.259032040499136E+09, 4.990191425668159E+09, -1.677238487034488E+07,
2460525.500000000, A.D. 2024-Aug-03 00:00:00.0000, 2.255928988744626E+09, 4.990843561267307E+09, -1.651365329314876E+07,
2460532.500000000, A.D. 2024-Aug-10 00:00:00.0000, 2.252825233459378E+09, 4.991494151919702E+09, -1.625491597460175E+07,
2460539.500000000, A.D. 2024-Aug-17 00:00:00.0000, 2.249720775068031E+09, 4.992143197979997E+09, -1.599617292965722E+07,
2460546.500000000, A.D. 2024-Aug-24 00:00:00.0000, 2.246615613514349E+09, 4.992790699486878E+09, -1.573742415713286E+07,
2460553.500000000, A.D. 2024-Aug-31 00:00:00.0000, 2.243509748347046E+09, 4.993436655798712E+09, -1.547866967135620E+07,
2460560.500000000, A.D. 2024-Sep-07 00:00:00.0000, 2.240403179311471E+09, 4.994081065190258E+09, -1.521990958342481E+07,
2460567.500000000, A.D. 2024-Sep-14 00:00:00.0000, 2.237295907532405E+09, 4.994723925406582E+09, -1.496114415873122E+07,
2460574.500000000, A.D. 2024-Sep-21 00:00:00.0000, 2.234187935259144E+09, 4.995365235587003E+09, -1.470237363118982E+07,
2460581.500000000, A.D. 2024-Sep-28 00:00:00.0000, 2.231079263685372E+09, 4.996004996331598E+09, -1.444359799339223E+07,
2460588.500000000, A.D. 2024-Oct-05 00:00:00.0000, 2.227969892513513E+09, 4.996643207912068E+09, -1.418481709928346E+07,
2460595.500000000, A.D. 2024-Oct-12 00:00:00.0000, 2.224859820902967E+09, 4.997279869607203E+09, -1.392603080285120E+07,
2460602.500000000, A.D. 2024-Oct-19 00:00:00.0000, 2.221749048051278E+09, 4.997914979892263E+09, -1.366723899439955E+07,
2460609.500000000, A.D. 2024-Oct-26 00:00:00.0000, 2.218637573375919E+09, 4.998548536681098E+09, -1.340844159696603E+07,
2460616.500000000, A.D. 2024-Nov-02 00:00:00.0000, 2.215525396554110E+09, 4.999180537472804E+09, -1.314963855859017E+07,
2460623.500000000, A.D. 2024-Nov-09 00:00:00.0000, 2.212412517517422E+09, 4.999810979423967E+09, -1.289082984757781E+07,
2460630.500000000, A.D. 2024-Nov-16 00:00:00.0000, 2.209298936427210E+09, 5.000439859346981E+09, -1.263201545307016E+07,
2460637.500000000, A.D. 2024-Nov-23 00:00:00.0000, 2.206184653677960E+09, 5.001067173584882E+09, -1.237319539922905E+07,
2460644.500000000, A.D. 2024-Nov-30 00:00:00.0000, 2.203069670136981E+09, 5.001692917720273E+09, -1.211436979555678E+07,
2460651.500000000, A.D. 2024-Dec-07 00:00:00.0000, 2.199953988039985E+09, 5.002317086539196E+09, -1.185553892733097E+07,
2460658.500000000, A.D. 2024-Dec-14 00:00:00.0000, 2.196837611854030E+09, 5.002939675474107E+09, -1.159670322286439E+07,
2460665.500000000, A.D. 2024-Dec-21 00:00:00.0000, 2.193720546789325E+09, 5.003560682285305E+09, -1.133786298615789E+07,
2460672.500000000, A.D. 2024-Dec-28 00:00:00.0000, 2.190602796932435E+09, 5.004180106013597E+09, -1.107901831820560E+07,
2460679.500000000, A.D. 2025-Jan-04 00:00:00.0000, 2.187484365598154E+09, 5.004797945580412E+09, -1.082016927075911E+07,
2460686.500000000, A.D. 2025-Jan-11 00:00:00.0000, 2.184365256078903E+09, 5.005414199695271E+09, -1.056131592964816E+07,
2460693.500000000, A.D. 2025-Jan-18 00:00:00.0000, 2.181245471874810E+09, 5.006028867151826E+09, -1.030245841837549E+07,
2460700.500000000, A.D. 2025-Jan-25 00:00:00.0000, 2.178125016648108E+09, 5.006641947037941E+09, -1.004359688284063E+07,
2460707.500000000, A.D. 2025-Feb-01 00:00:00.0000, 2.175003894091492E+09, 5.007253438829679E+09, -9.784731476775408E+06,
2460714.500000000, A.D. 2025-Feb-08 00:00:00.0000, 2.171882107768943E+09, 5.007863342388863E+09, -9.525862351391554E+06,
2460721.500000000, A.D. 2025-Feb-15 00:00:00.0000, 2.168759660957939E+09, 5.008471657844187E+09, -9.266989653319836E+06,
$$EOE